CZ-4B R/B               
1 25732U 99025C   17345.96872498 -.00000019  00000-0  13036-4 0  9995
2 25732  98.9954 349.9086 0036590 306.4245 111.9799 14.17641904961720
